HAWK-2C                 
1 47502U 21006CT  26068.67595434  .00008129  00000+0  25493-3 0  9997
2 47502  97.2417 114.9961 0006943 184.0877 176.0310 15.33286436284247
STARLINK-35757          
1 66270U 25247F   26068.60940295  .00017232  00000+0  59282-3 0  9991
2 66270  53.1590 191.6556 0001066  66.3916 293.7196 15.30186691 21070
